UME (ISS)
1 08709U 76019A   23304.54344597  .00000109  00000+0  17820-3 0  9990
2 08709  69.6745 336.0017 0011741 340.7140 133.6314 13.71558529385492
UME-2 (ISS-B)
1 10674U 78018A   23304.56412510 -.00000019  00000+0  49962-4 0  9992
2 10674  69.3651  26.1877 0160553  66.8293  28.7616 13.43653567241724
ISS (ZARYA)
1 25544U 98067A   23304.51527662  .00018388  00000+0  33041-3 0  9997
2 25544  51.6458  13.2771 0000981  75.2100  53.6597 15.49914979422938
SWISSCUBE
1 35932U 09051B   23303.12040925  .00002063  00000+0  45823-3 0  9996
2 35932  98.4985 176.5617 0006765 319.9056  40.1643 14.58137133748875
AISSAT 1
1 36797U 10035C   23304.58877692  .00003571  00000+0  38080-3 0  9992
2 36797  98.2104 152.5041 0010180 344.7669  15.3239 14.89508671720972
AISSAT 2
1 40075U 14037G   23304.50066490  .00003243  00000+0  38503-3 0  9996
2 40075  98.3375 207.7491 0006256 135.3759 224.7959 14.85213684503878
ISS DEB [EP BATTERY]
1 47853U 98067RZ  23304.48189517  .00063883  00000+0  34079-3 0  9995
2 47853  51.6299 320.0420 0004231  40.2588 319.8726 15.79773218150269
ISS (NAUKA)
1 49044U 21066A   23303.46056800  .00023743  00000+0  42469-3 0  9992
2 49044  51.6421  18.5030 0000737  72.1366 287.9703 15.49869849422761
ISS DEB (SPX-26 IPA FSE)
1 55448U 98067VB  23304.53018558  .00153997  00000+0  72169-3 0  9994
2 55448  51.6314 347.3103 0005194 341.2159  18.8651 15.82216093 42667
OUTPOST MISSION 1
1 56226U 23084BK  23304.57337376  .00010796  00000+0  55848-3 0  9996
2 56226  97.5245  59.5402 0011514  90.9240 269.3312 15.16364533 21305
ISS DEB [ERA OUTFITTING]
1 56434U 98067VJ  23304.41730840  .00180694  00000+0  10409-2 0  9994
2 56434  51.6339   0.1108 0005999 339.7321  20.3440 15.77600724 28227
ISS DEB
1 57161U 98067VL  23304.52306909  .00321201  00000+0  15891-2 0  9990
2 57161  51.6334   2.3363 0006279 359.6001   0.4995 15.80568656 20446
ISS DEB
1 57162U 98067VM  23304.57042844  .00241291  00000+0  13304-2 0  9998
2 57162  51.6336   2.6766 0005799   5.7476 354.3590 15.78403058 20443
ISS DEB
1 57163U 98067VN  23304.54777690  .00151879  00000+0  11711-2 0  9992
2 57163  51.6344   4.7744 0001750 347.3192  12.7761 15.70960481 20406
ISS DEB [SPX-28 IPA FSE]
1 57212U 98067VP  23304.46944580  .00049972  00000+0  62415-3 0  9990
2 57212  51.6378   9.5001 0001727 237.5506 122.5320 15.59341215 19910